{"spkid": "50467417", "covariance": {"labels": ["e", "q", "tp", "node", "peri", "i"], "data": [["4.767242675433942E-16", "-1.428782815402327E-15", "3.043014708177458E-14", "-7.366739757980275E-14", "7.332451535922616E-14", "-5.307298763558809E-14"], ["-1.428782815402327E-15", "4.314489127622067E-15", "-1.806427201055039E-13", "2.155551961692258E-13", "-1.993637100019696E-13", "2.210420953523297E-13"], ["3.043014708177458E-14", "-1.806427201055039E-13", "1.911485497453543E-9", "-1.875175168299159E-11", "4.559045043834017E-10", "-3.087330453039423E-11"], ["-7.366739757980275E-14", "2.155551961692258E-13", "-1.875175168299159E-11", "5.957589289580597E-11", "-2.980093854016129E-11", "-4.399047380351332E-11"], ["7.332451535922616E-14", "-1.993637100019696E-13", "4.559045043834017E-10", "-2.980093854016129E-11", "1.923713774947702E-10", "1.263992929541922E-11"], ["-5.307298763558809E-14", "2.210420953523297E-13", "-3.087330453039423E-11", "-4.399047380351332E-11", "1.263992929541922E-11", "5.744285342386894E-10"]], "elements": [{"label": "e", "sigma": 2.18340162943833e-08, "name": "e", "units": null, "title": "eccentricity", "value": ".671731926793923"}, {"units": "au", "title": "perihelion distance", "value": ".9932193416867109", "sigma": 6.56847708957112e-08, "name": "q", "label": "q"}, {"name": "tp", "sigma": 4.37205386226376e-05, "value": "2457077.761204396807", "title": "time of perihelion passage", "units": "TDB", "label": "tp"}, {"sigma": 7.7185421483468e-06, "name": "om", "units": "deg", "title": "longitude of the ascending node", "value": "177.6469963133465", "label": "node"}, {"label": "peri", "name": "w", "sigma": 1.38698009176329e-05, "value": "204.1321633879149", "title": "argument of perihelion", "units": "deg"}, {"label": "i", "units": "deg", "title": "inclination", "value": "58.40977062910828", "name": "i", "sigma": 2.39672387695932e-05}], "epoch": "2457389.5"}, "elements": [{"label": "e", "units": null, "value": ".6736502732732683", "title": "eccentricity", "sigma": "2.4675E-8", "name": "e"}, {"name": "a", "sigma": "2.0756E-8", "value": "3.038754587078133", "title": "semi-major axis", "units": "au", "label": "a"}, {"name": "q", "sigma": "7.7217E-8", "units": "au", "title": "perihelion distance", "value": ".991696729082551", "label": "q"}, {"label": "i", "units": "deg", "title": "inclination; angle with respect to x-y ecliptic plane", "value": "57.84045053863428", "name": "i", "sigma": "2.4277E-5"}, {"label": "node", "value": "177.3763343643225", "title": "longitude of the ascending node", "units": "deg", "name": "om", "sigma": "7.6239E-6"}, {"name": "w", "sigma": "1.3366E-5", "units": "deg", "title": "argument of perihelion", "value": "204.6359984790224", "label": "peri"}, {"title": "mean anomaly", "value": "46.30593487995107", "units": "deg", "name": "ma", "sigma": "1.5977E-6", "label": "M"}, {"units": "TDB", "value": "2460951.628008009294", "title": "time of perihelion passage", "sigma": "1.0135E-5", "name": "tp", "label": "tp"}, {"label": "period", "value": "1934.825791746305", "title": "sidereal orbital period", "units": "d", "sigma": "1.9824E-5", "name": "per"}, {"label": "n", "sigma": "1.9064E-9", "name": "n", "units": "deg/d", "title": "mean motion", "value": ".1860632629230546"}, {"sigma": "3.4739E-8", "name": "ad", "units": "au", "value": "5.085812445073715", "title": "aphelion distance", "label": "Q"}], "epoch": "2461200.5"}